[{"OBJECT_NAME":"TDRS 3","OBJECT_ID":"1988-091B","EPOCH":"2026-04-25T11:39:48.574368","MEAN_MOTION":1.00275272,"ECCENTRICITY":0.0041033,"INCLINATION":12.6422,"RA_OF_ASC_NODE":341.3539,"ARG_OF_PERICENTER":355.9255,"MEAN_ANOMALY":2.3192,"EPHEMERIS_TYPE":0,"CLASSIFICATION_TYPE":"U","NORAD_CAT_ID":19548,"ELEMENT_SET_NO":999,"REV_AT_EPOCH":12485,"BSTAR":0,"MEAN_MOTION_DOT":-3.13e-6,"MEAN_MOTION_DDOT":0},{"OBJECT_NAME":"HST","OBJECT_ID":"1990-037B","EPOCH":"2026-04-25T14:02:48.110784","MEAN_MOTION":15.30144545,"ECCENTRICITY":0.0001645,"INCLINATION":28.4745,"RA_OF_ASC_NODE":79.9164,"ARG_OF_PERICENTER":280.6914,"MEAN_ANOMALY":79.3497,"EPHEMERIS_TYPE":0,"CLASSIFICATION_TYPE":"U","NORAD_CAT_ID":20580,"ELEMENT_SET_NO":999,"REV_AT_EPOCH":78050,"BSTAR":0.00020815,"MEAN_MOTION_DOT":6.48e-5,"MEAN_MOTION_DDOT":0},{"OBJECT_NAME":"TDRS 5","OBJECT_ID":"1991-054B","EPOCH":"2026-04-25T09:18:34.216128","MEAN_MOTION":1.00270227,"ECCENTRICITY":0.0008092,"INCLINATION":14.0786,"RA_OF_ASC_NODE":354.1737,"ARG_OF_PERICENTER":285.1594,"MEAN_ANOMALY":266.0118,"EPHEMERIS_TYPE":0,"CLASSIFICATION_TYPE":"U","NORAD_CAT_ID":21639,"ELEMENT_SET_NO":999,"REV_AT_EPOCH":12718,"BSTAR":0,"MEAN_MOTION_DOT":7.1e-7,"MEAN_MOTION_DDOT":0},{"OBJECT_NAME":"TDRS 6","OBJECT_ID":"1993-003B","EPOCH":"2026-04-25T03:42:58.683168","MEAN_MOTION":1.00274136,"ECCENTRICITY":0.00059115,"INCLINATION":14.1825,"RA_OF_ASC_NODE":357.4542,"ARG_OF_PERICENTER":179.4928,"MEAN_ANOMALY":46.2104,"EPHEMERIS_TYPE":0,"CLASSIFICATION_TYPE":"U","NORAD_CAT_ID":22314,"ELEMENT_SET_NO":999,"REV_AT_EPOCH":12187,"BSTAR":0,"MEAN_MOTION_DOT":-3.08e-6,"MEAN_MOTION_DDOT":0},{"OBJECT_NAME":"TDRS 7","OBJECT_ID":"1995-035B","EPOCH":"2026-04-25T15:19:38.623008","MEAN_MOTION":1.00278415,"ECCENTRICITY":0.0010903,"INCLINATION":13.3995,"RA_OF_ASC_NODE":348.5523,"ARG_OF_PERICENTER":64.4072,"MEAN_ANOMALY":119.658,"EPHEMERIS_TYPE":0,"CLASSIFICATION_TYPE":"U","NORAD_CAT_ID":23613,"ELEMENT_SET_NO":999,"REV_AT_EPOCH":11272,"BSTAR":0,"MEAN_MOTION_DOT":-2.53e-6,"MEAN_MOTION_DDOT":0},{"OBJECT_NAME":"ISS (ZARYA)","OBJECT_ID":"1998-067A","EPOCH":"2026-04-25T14:51:50.575968","MEAN_MOTION":15.48952974,"ECCENTRICITY":0.0006949,"INCLINATION":51.632,"RA_OF_ASC_NODE":200.2872,"ARG_OF_PERICENTER":349.7097,"MEAN_ANOMALY":10.3748,"EPHEMERIS_TYPE":0,"CLASSIFICATION_TYPE":"U","NORAD_CAT_ID":25544,"ELEMENT_SET_NO":999,"REV_AT_EPOCH":56360,"BSTAR":0.00019457,"MEAN_MOTION_DOT":0.00010271,"MEAN_MOTION_DDOT":0},{"OBJECT_NAME":"TERRA","OBJECT_ID":"1999-068A","EPOCH":"2026-04-25T20:07:10.308000","MEAN_MOTION":14.61060159,"ECCENTRICITY":0.0003216,"INCLINATION":97.9503,"RA_OF_ASC_NODE":167.449,"ARG_OF_PERICENTER":56.8981,"MEAN_ANOMALY":31.3058,"EPHEMERIS_TYPE":0,"CLASSIFICATION_TYPE":"U","NORAD_CAT_ID":25994,"ELEMENT_SET_NO":999,"REV_AT_EPOCH":40196,"BSTAR":8.609e-5,"MEAN_MOTION_DOT":3.78e-6,"MEAN_MOTION_DDOT":0},{"OBJECT_NAME":"TDRS 8","OBJECT_ID":"2000-034A","EPOCH":"2026-04-25T19:08:39.467328","MEAN_MOTION":1.00277077,"ECCENTRICITY":0.0006163,"INCLINATION":12.6028,"RA_OF_ASC_NODE":31.7616,"ARG_OF_PERICENTER":346.7827,"MEAN_ANOMALY":207.0804,"EPHEMERIS_TYPE":0,"CLASSIFICATION_TYPE":"U","NORAD_CAT_ID":26388,"ELEMENT_SET_NO":999,"REV_AT_EPOCH":9465,"BSTAR":0,"MEAN_MOTION_DOT":-2.04e-6,"MEAN_MOTION_DDOT":0},{"OBJECT_NAME":"TIMED","OBJECT_ID":"2001-055B","EPOCH":"2026-04-25T18:04:27.602400","MEAN_MOTION":14.9516643,"ECCENTRICITY":0.0001777,"INCLINATION":74.0685,"RA_OF_ASC_NODE":340.5874,"ARG_OF_PERICENTER":212.0989,"MEAN_ANOMALY":148.0088,"EPHEMERIS_TYPE":0,"CLASSIFICATION_TYPE":"U","NORAD_CAT_ID":26998,"ELEMENT_SET_NO":999,"REV_AT_EPOCH":32298,"BSTAR":8.9383e-5,"MEAN_MOTION_DOT":9.42e-6,"MEAN_MOTION_DDOT":0},{"OBJECT_NAME":"AQUA","OBJECT_ID":"2002-022A","EPOCH":"2026-04-25T21:36:13.500864","MEAN_MOTION":14.62073952,"ECCENTRICITY":0.0002029,"INCLINATION":98.4243,"RA_OF_ASC_NODE":84.1533,"ARG_OF_PERICENTER":96.0266,"MEAN_ANOMALY":288.5956,"EPHEMERIS_TYPE":0,"CLASSIFICATION_TYPE":"U","NORAD_CAT_ID":27424,"ELEMENT_SET_NO":999,"REV_AT_EPOCH":27563,"BSTAR":0.00017916,"MEAN_MOTION_DOT":8.5e-6,"MEAN_MOTION_DDOT":0},{"OBJECT_NAME":"SORCE","OBJECT_ID":"2003-004A","EPOCH":"2026-04-25T16:01:04.199808","MEAN_MOTION":15.03418116,"ECCENTRICITY":0.0016536,"INCLINATION":39.9899,"RA_OF_ASC_NODE":201.2547,"ARG_OF_PERICENTER":31.4179,"MEAN_ANOMALY":328.7599,"EPHEMERIS_TYPE":0,"CLASSIFICATION_TYPE":"U","NORAD_CAT_ID":27651,"ELEMENT_SET_NO":999,"REV_AT_EPOCH":26399,"BSTAR":0.00021142,"MEAN_MOTION_DOT":2.783e-5,"MEAN_MOTION_DDOT":0},{"OBJECT_NAME":"AURA","OBJECT_ID":"2004-026A","EPOCH":"2026-04-25T21:04:09.242400","MEAN_MOTION":14.61245571,"ECCENTRICITY":0.000169,"INCLINATION":98.3381,"RA_OF_ASC_NODE":71.9138,"ARG_OF_PERICENTER":85.4031,"MEAN_ANOMALY":274.7362,"EPHEMERIS_TYPE":0,"CLASSIFICATION_TYPE":"U","NORAD_CAT_ID":28376,"ELEMENT_SET_NO":999,"REV_AT_EPOCH":15857,"BSTAR":0.00018258,"MEAN_MOTION_DOT":8.52e-6,"MEAN_MOTION_DDOT":0},{"OBJECT_NAME":"SWIFT","OBJECT_ID":"2004-047A","EPOCH":"2026-04-25T15:04:44.203296","MEAN_MOTION":15.63536129,"ECCENTRICITY":0.0001604,"INCLINATION":20.5525,"RA_OF_ASC_NODE":228.8093,"ARG_OF_PERICENTER":312.5282,"MEAN_ANOMALY":47.5027,"EPHEMERIS_TYPE":0,"CLASSIFICATION_TYPE":"U","NORAD_CAT_ID":28485,"ELEMENT_SET_NO":999,"REV_AT_EPOCH":17861,"BSTAR":0.00043688,"MEAN_MOTION_DOT":0.00043357,"MEAN_MOTION_DDOT":0},{"OBJECT_NAME":"THEMIS A","OBJECT_ID":"2007-004A","EPOCH":"2026-04-25T03:12:14.313600","MEAN_MOTION":0.87844718,"ECCENTRICITY":0.838274,"INCLINATION":7.6046,"RA_OF_ASC_NODE":114.3962,"ARG_OF_PERICENTER":188.7831,"MEAN_ANOMALY":127.5791,"EPHEMERIS_TYPE":0,"CLASSIFICATION_TYPE":"U","NORAD_CAT_ID":30580,"ELEMENT_SET_NO":999,"REV_AT_EPOCH":4081,"BSTAR":0.0041252,"MEAN_MOTION_DOT":6.3e-7,"MEAN_MOTION_DDOT":0},{"OBJECT_NAME":"THEMIS D","OBJECT_ID":"2007-004D","EPOCH":"2026-04-24T07:08:22.987392","MEAN_MOTION":0.87834113,"ECCENTRICITY":0.8339467,"INCLINATION":7.1883,"RA_OF_ASC_NODE":82.6457,"ARG_OF_PERICENTER":223.1112,"MEAN_ANOMALY":208.3988,"EPHEMERIS_TYPE":0,"CLASSIFICATION_TYPE":"U","NORAD_CAT_ID":30797,"ELEMENT_SET_NO":999,"REV_AT_EPOCH":4060,"BSTAR":0,"MEAN_MOTION_DOT":-1.7e-7,"MEAN_MOTION_DDOT":0},{"OBJECT_NAME":"THEMIS E","OBJECT_ID":"2007-004E","EPOCH":"2026-04-25T20:10:55.996032","MEAN_MOTION":0.88332068,"ECCENTRICITY":0.8448594,"INCLINATION":5.7196,"RA_OF_ASC_NODE":101.2085,"ARG_OF_PERICENTER":206.1299,"MEAN_ANOMALY":56.2949,"EPHEMERIS_TYPE":0,"CLASSIFICATION_TYPE":"U","NORAD_CAT_ID":30798,"ELEMENT_SET_NO":999,"REV_AT_EPOCH":6546,"BSTAR":0,"MEAN_MOTION_DOT":3.0e-7,"MEAN_MOTION_DDOT":0},{"OBJECT_NAME":"FGRST (GLAST)","OBJECT_ID":"2008-029A","EPOCH":"2026-04-25T13:53:41.974656","MEAN_MOTION":15.23657127,"ECCENTRICITY":0.0008712,"INCLINATION":25.5812,"RA_OF_ASC_NODE":209.6846,"ARG_OF_PERICENTER":67.841,"MEAN_ANOMALY":292.3052,"EPHEMERIS_TYPE":0,"CLASSIFICATION_TYPE":"U","NORAD_CAT_ID":33053,"ELEMENT_SET_NO":999,"REV_AT_EPOCH":98780,"BSTAR":0.00011873,"MEAN_MOTION_DOT":3.267e-5,"MEAN_MOTION_DDOT":0}]
