TDRS 3                  
1 19548U 88091B   26115.48597887 -.00000313  00000+0  00000+0 0  9990
2 19548  12.6422 341.3539 0041033 355.9255   2.3192  1.00275272124852
HST                     
1 20580U 90037B   26115.58527906  .00006480  00000+0  20815-3 0  9997
2 20580  28.4745  79.9164 0001645 280.6914  79.3497 15.30144545780500
TDRS 5                  
1 21639U 91054B   26115.38789602  .00000071  00000+0  00000+0 0  9994
2 21639  14.0786 354.1737 0008092 285.1594 266.0118  1.00270227127186
TDRS 6                  
1 22314U 93003B   26115.15484587 -.00000308  00000+0  00000+0 0  9994
2 22314  14.1825 357.4542 0005911 179.4928  46.2104  1.00274136121871
TDRS 7                  
1 23613U 95035B   26115.63864147 -.00000253  00000+0  00000+0 0  9990
2 23613  13.3995 348.5523 0010903  64.4072 119.6580  1.00278415112724
ISS (ZARYA)             
1 25544U 98067A   26115.61933537  .00010271  00000+0  19457-3 0  9991
2 25544  51.6320 200.2872 0006949 349.7097  10.3748 15.48952974563604
TERRA                   
1 25994U 99068A   26115.83831375  .00000378  00000+0  86090-4 0  9998
2 25994  97.9503 167.4490 0003216  56.8981  31.3058 14.61060159401967
TDRS 8                  
1 26388U 00034A   26115.79767902 -.00000204  00000+0  00000+0 0  9991
2 26388  12.6028  31.7616 0006163 346.7827 207.0804  1.00277077 94651
TIMED                   
1 26998U 01055B   26115.75309725  .00000942  00000+0  89383-4 0  9997
2 26998  74.0685 340.5874 0001777 212.0989 148.0088 14.95166430322982
AQUA                    
1 27424U 02022A   26115.90015626  .00000850  00000+0  17916-3 0  9998
2 27424  98.4243  84.1533 0002029  96.0266 288.5956 14.62073952275632
SORCE                   
1 27651U 03004A   26115.66740972  .00002783  00000+0  21142-3 0  9996
2 27651  39.9899 201.2547 0016536  31.4179 328.7599 15.03418116263999
AURA                    
1 28376U 04026A   26115.87788475  .00000852  00000+0  18258-3 0  9998
2 28376  98.3381  71.9138 0001690  85.4031 274.7362 14.61245571158579
SWIFT                   
1 28485U 04047A   26115.62828939  .00043357  00000+0  43688-3 0  9997
2 28485  20.5525 228.8093 0001604 312.5282  47.5027 15.63536129178613
THEMIS A                
1 30580U 07004A   26115.13349900  .00000063  00000+0  41252-2 0  9995
2 30580   7.6046 114.3962 8382740 188.7831 127.5791  0.87844718 40817
THEMIS D                
1 30797U 07004D   26114.29748828 -.00000017  00000+0  00000+0 0  9996
2 30797   7.1883  82.6457 8339467 223.1112 208.3988  0.87834113 40602
THEMIS E                
1 30798U 07004E   26115.84092588  .00000030  00000+0  00000+0 0  9998
2 30798   5.7196 101.2085 8448594 206.1299  56.2949  0.88332068 65469
FGRST (GLAST)           
1 33053U 08029A   26115.57895804  .00003267  00000+0  11873-3 0  9994
2 33053  25.5812 209.6846 0008712  67.8410 292.3052 15.23657127987802
